{
"type": "FeatureCollection",
"name": "riau_boundary_fallback",
"crs": { "type": "name", "properties": { "name": "urn:ogc:def:crs:OGC:1.3:CRS84" } },
"features": [
{ "type": "Feature", "properties": { "WADMPR": "Riau" }, "geometry": { "type": "Polygon", "coordinates": [ [ [ 100.33075, 2.534235 ], [ 100.362923, 2.389775 ], [ 100.434563, 2.274679 ], [ 100.564941, 2.163499 ], [ 100.676041, 2.129844 ], [ 100.794281, 2.066174 ], [ 100.871442, 1.975428 ], [ 100.881836, 2.042196 ], [ 100.789459, 2.12244 ], [ 100.765831, 2.22986 ], [ 100.803841, 2.273186 ], [ 100.93557, 2.299736 ], [ 101.056686, 2.283606 ], [ 101.066132, 2.229236 ], [ 101.164253, 2.139924 ], [ 101.263565, 2.08419 ], [ 101.320526, 1.995129 ], [ 101.333084, 1.895614 ], [ 101.359558, 1.824198 ], [ 101.361557, 1.76134 ], [ 101.408241, 1.700851 ], [ 101.477303, 1.686206 ], [ 101.546852, 1.641194 ], [ 101.603996, 1.641009 ], [ 101.659866, 1.667564 ], [ 101.756844, 1.664385 ], [ 101.826736, 1.599705 ], [ 102.047836, 1.43117 ], [ 102.1455, 1.381307 ], [ 102.145378, 1.295651 ], [ 102.159187, 1.234358 ], [ 102.202477, 1.201452 ], [ 102.184792, 1.104687 ], [ 102.242256, 0.973765 ], [ 102.320862, 0.917839 ], [ 102.392334, 0.820976 ], [ 102.492737, 0.755373 ], [ 102.581657, 0.739578 ], [ 102.692642, 0.755734 ], [ 102.768555, 0.732514 ], [ 102.875893, 0.734737 ], [ 102.908607, 0.713944 ], [ 103.013893, 0.589782 ], [ 103.050728, 0.527877 ], [ 103.112839, 0.460048 ], [ 103.177315, 0.464677 ], [ 103.235756, 0.5002 ], [ 103.292587, 0.511416 ], [ 103.327034, 0.548835 ], [ 103.408028, 0.526535 ], [ 103.495544, 0.45212 ], [ 103.580421, 0.397274 ], [ 103.602257, 0.349138 ], [ 103.651825, 0.340746 ], [ 103.726089, 0.279325 ], [ 103.765465, 0.19601 ], [ 103.771179, 0.110799 ], [ 103.802605, -0.003097 ], [ 103.677681, -0.0214 ], [ 103.594849, -0.021255 ], [ 103.572601, -0.061704 ], [ 103.588943, -0.09978 ], [ 103.499954, -0.120131 ], [ 103.500122, -0.186988 ], [ 103.531258, -0.223075 ], [ 103.622711, -0.229643 ], [ 103.760757, -0.304756 ], [ 103.773033, -0.342722 ], [ 103.693321, -0.351822 ], [ 103.611321, -0.391451 ], [ 103.597794, -0.438134 ], [ 103.50383, -0.506391 ], [ 103.425537, -0.521972 ], [ 103.415939, -0.673044 ], [ 103.401497, -0.728957 ], [ 103.459114, -0.741822 ], [ 103.482338, -0.771407 ], [ 103.342834, -0.785774 ], [ 103.126038, -0.746429 ], [ 103.008949, -0.755179 ], [ 102.90477, -0.894179 ], [ 102.808495, -0.96665 ], [ 102.780602, -1.023676 ], [ 102.687668, -1.078578 ], [ 102.638, -1.12041 ], [ 102.616814, -1.094634 ], [ 102.495422, -1.084733 ], [ 102.44252, -1.025452 ], [ 102.393372, -1.03016 ], [ 102.38623, -0.993385 ], [ 102.324387, -0.960805 ], [ 102.304298, -0.916958 ], [ 102.254326, -0.921539 ], [ 102.217072, -0.946344 ], [ 102.16272, -0.898907 ], [ 102.116615, -0.921174 ], [ 102.057976, -0.889922 ], [ 101.983551, -0.880408 ], [ 101.924278, -0.941475 ], [ 101.845284, -0.982566 ], [ 101.821533, -0.977189 ], [ 101.747887, -0.967631 ], [ 101.6539, -0.935173 ], [ 101.595917, -0.8512 ], [ 101.500015, -0.807856 ], [ 101.407272, -0.736848 ], [ 101.359833, -0.659254 ], [ 101.256569, -0.626754 ], [ 101.181267, -0.549494 ], [ 101.06768, -0.498227 ], [ 101.024826, -0.398442 ], [ 101.031708, -0.340868 ], [ 100.996368, -0.314363 ], [ 100.94133, -0.312437 ], [ 100.910423, -0.370743 ], [ 100.833672, -0.318377 ], [ 100.838776, -0.290596 ], [ 100.781006, -0.23042 ], [ 100.748398, -0.065219 ], [ 100.770103, -0.033094 ], [ 100.753342, 0.048535 ], [ 100.792191, 0.120829 ], [ 100.778122, 0.169268 ], [ 100.727119, 0.193165 ], [ 100.687881, 0.177849 ], [ 100.605743, 0.183473 ], [ 100.464088, 0.222191 ], [ 100.43718, 0.247852 ], [ 100.394623, 0.339763 ], [ 100.361946, 0.354324 ], [ 100.281677, 0.332958 ], [ 100.282326, 0.408069 ], [ 100.219559, 0.524918 ], [ 100.205925, 0.593234 ], [ 100.25573, 0.709395 ], [ 100.183716, 0.761895 ], [ 100.140305, 0.797662 ], [ 100.132614, 0.891546 ], [ 100.092819, 0.915075 ], [ 100.136681, 0.949117 ], [ 100.161377, 0.999156 ], [ 100.108658, 1.071883 ], [ 100.16082, 1.151491 ], [ 100.130478, 1.174596 ], [ 100.123497, 1.254924 ], [ 100.086632, 1.337513 ], [ 100.077881, 1.387209 ], [ 100.242752, 1.392655 ], [ 100.27504, 1.421141 ], [ 100.315857, 1.416456 ], [ 100.408829, 1.470363 ], [ 100.434021, 1.51129 ], [ 100.415886, 1.537141 ], [ 100.455269, 1.629147 ], [ 100.408333, 1.777267 ], [ 100.292068, 1.802315 ], [ 100.2864, 1.830302 ], [ 100.322128, 1.919015 ], [ 100.322708, 2.014011 ], [ 100.360146, 2.220377 ], [ 100.309578, 2.34065 ], [ 100.302208, 2.413565 ], [ 100.33075, 2.534235 ] ] ] } }
]
}
